{"type":"FeatureCollection","features":[{"type":"Feature","properties":{"gouv_id":"TN13","gouv_fr":"Ben Arous","gouv_ar":"\u0628\u0646 \u0639\u0631\u0648\u0633"},"geometry":{"type":"Polygon","coordinates":[[[10.144,36.7],[10.143,36.716],[10.135,36.731],[10.134,36.736],[10.154,36.734],[10.171,36.725],[10.189089820359282,36.723095808383235],[10.204,36.739],[10.208,36.746],[10.217,36.76],[10.223,36.767],[10.212,36.773],[10.209,36.775],[10.22,36.787],[10.234,36.806],[10.237,36.806],[10.255,36.806],[10.26,36.807],[10.261,36.807],[10.307,36.814],[10.28,36.777],[10.301,36.765],[10.329,36.748],[10.341,36.741],[10.352,36.737],[10.421,36.715],[10.417,36.695],[10.417,36.691],[10.38,36.648],[10.378,36.645],[10.34,36.587],[10.346,36.58],[10.364,36.583],[10.375,36.579],[10.381,36.561],[10.343,36.513],[10.349,36.48],[10.311,36.465],[10.271,36.446],[10.244,36.454],[10.269,36.503],[10.219,36.52],[10.182,36.515],[10.151,36.569],[10.152,36.644],[10.151,36.602],[10.106,36.583],[10.037,36.619],[10.038,36.624],[10.095,36.688],[10.089,36.695],[10.155,36.701],[10.144,36.7]],[[10.352,36.737],[10.351,36.698],[10.351,36.654],[10.352,36.737]],[[10.332,36.702],[10.319,36.699],[10.298,36.693],[10.332,36.702]]]}},{"type":"Feature","properties":{"gouv_id":"TN11","gouv_fr":"Tunis","gouv_ar":"\u062a\u0648\u0646\u0633"},"geometry":{"type":"Polygon","coordinates":[[[10.135,36.731],[10.143,36.716],[10.144,36.7],[10.089,36.695],[10.069,36.724],[10.031,36.754],[10.026,36.76],[10.003,36.786],[10.026,36.797],[10.053,36.789],[10.071,36.798],[10.07,36.799],[10.082,36.798],[10.1,36.802],[10.122,36.799],[10.121,36.801],[10.118,36.827],[10.118,36.829],[10.118,36.831],[10.117,36.834],[10.114,36.842],[10.115,36.842],[10.12,36.847],[10.131,36.85],[10.143,36.854],[10.143,36.855],[10.168,36.841],[10.184569620253164,36.843924050632914],[10.187,36.85],[10.215,36.85],[10.22,36.861],[10.239,36.87],[10.236,36.856],[10.246,36.858],[10.266,36.862],[10.273,36.863],[10.288827586206892,36.864172413793106],[10.276,36.877],[10.285,36.9],[10.25,36.938],[10.256,36.952],[10.291,36.931],[10.322,36.916],[10.362,36.884],[10.37,36.876],[10.332,36.844],[10.325,36.838],[10.321,36.832],[10.307,36.814],[10.272,36.809],[10.261,36.807],[10.255,36.806],[10.237,36.806],[10.234,36.806],[10.22,36.787],[10.209000000000003,36.775],[10.212,36.773],[10.223,36.767],[10.217,36.76],[10.208,36.746],[10.204,36.739],[10.189,36.723],[10.175,36.725],[10.171,36.725],[10.156,36.733],[10.154,36.734],[10.134,36.736],[10.135,36.731]],[[10.156,36.733],[10.15,36.754],[10.148,36.761],[10.139,36.79],[10.156,36.733]],[[10.175,36.772],[10.183,36.776],[10.175,36.773],[10.175,36.772]],[[10.178,36.82],[10.183,36.818],[10.181,36.819],[10.178,36.82]]]}},{"type":"Feature","properties":{"gouv_id":"TN31","gouv_fr":"Sousse","gouv_ar":"\u0633\u0648\u0633\u0629"},"geometry":{"type":"Polygon","coordinates":[[[10.493,35.509],[10.515,35.482],[10.601,35.504],[10.63,35.486],[10.618,35.483],[10.564,35.448],[10.564,35.423],[10.563,35.388],[10.494,35.424],[10.465,35.44],[10.452,35.501],[10.41,35.521],[10.36,35.518],[10.311,35.591],[10.287,35.626],[10.251,35.688],[10.245,35.698],[10.193,35.767],[10.18,35.785],[10.156,35.807],[10.175,35.869],[10.242,35.922],[10.261,36.022],[10.291,36.021],[10.279,36.022],[10.223,36.056],[10.197,36.119],[10.192,36.131],[10.185,36.148],[10.269,36.174],[10.27,36.238],[10.318,36.236],[10.32,36.236],[10.372,36.251],[10.377,36.283],[10.386,36.326],[10.394,36.373],[10.482,36.364],[10.529,36.385],[10.557,36.372],[10.498,36.317],[10.478,36.172],[10.472,36.131],[10.49,36.093],[10.519,36.03],[10.544,35.991],[10.551,35.98],[10.592,35.914],[10.613,35.882],[10.62,35.872],[10.646,35.835],[10.636,35.826],[10.641,35.813],[10.663,35.812],[10.672,35.799],[10.69,35.795],[10.679,35.78],[10.672,35.771],[10.676,35.753],[10.675,35.747],[10.643,35.746],[10.64,35.735],[10.639,35.728],[10.64,35.692],[10.653,35.68],[10.649,35.674],[10.622,35.643],[10.606,35.649],[10.587,35.648],[10.573,35.647],[10.533,35.599],[10.543,35.577],[10.52,35.563],[10.494,35.552],[10.493,35.509]],[[10.539,35.793],[10.577,35.792],[10.551,35.793],[10.539,35.793]],[[10.532,35.849],[10.564,35.848],[10.533,35.849],[10.532,35.849]],[[10.355,35.805],[10.378,35.777],[10.366,35.792],[10.355,35.805]],[[10.305,35.808],[10.328,35.814],[10.316,35.811],[10.305,35.808]]]}},{"type":"Feature","properties":{"gouv_id":"TN14","gouv_fr":"Mannouba","gouv_ar":"\u0645\u0646\u0648\u0628\u0629"},"geometry":{"type":"Polygon","coordinates":[[[10.031,36.754],[10.069,36.724],[10.095,36.688],[10.038,36.624],[10.019,36.663],[9.985,36.631],[9.905,36.598],[9.897,36.614],[9.878,36.6],[9.865,36.587],[9.854,36.607],[9.821,36.609],[9.812,36.636],[9.799,36.639],[9.799,36.669],[9.782,36.717],[9.76,36.723],[9.731,36.73],[9.687,36.752],[9.618,36.769],[9.613,36.77],[9.557,36.833],[9.599,36.863],[9.726,36.905],[9.77,36.892],[9.821,36.973],[9.847,36.963],[9.863,36.957],[9.93,36.951],[9.947,36.915],[9.997,36.923],[10.013,36.912],[10.006,36.887],[9.966,36.839],[9.968095238095238,36.83600680272109],[9.982,36.837],[9.992,36.851],[10.027,36.849],[10.063,36.871],[10.076,36.876],[10.081,36.855],[10.08,36.854],[10.098,36.84],[10.104466666666669,36.82706666666667],[10.118,36.829],[10.121,36.801],[10.122,36.799],[10.1,36.802],[10.082,36.798],[10.070000000000002,36.799],[10.071,36.798],[10.053,36.789],[10.026,36.797],[10.003,36.786],[10.002,36.787],[10.031,36.754]],[[9.888,36.763],[9.889,36.763],[9.889,36.764],[9.888,36.763]],[[9.885,36.77],[9.87,36.807],[9.867,36.813],[9.885,36.77]]]}},{"type":"Feature","properties":{"gouv_id":"TN17","gouv_fr":"Bizerte","gouv_ar":"\u0628\u0646\u0632\u0631\u062a"},"geometry":{"type":"Polygon","coordinates":[[[9.54,36.82],[9.473,36.767],[9.43,36.738],[9.406,36.722],[9.376,36.748],[9.349,36.771],[9.389,36.846],[9.347,36.875],[9.325,36.868],[9.245,36.904],[9.256,36.939],[9.216,36.963],[9.221,36.998],[9.217,37.004],[9.189,37.052],[9.109,37.049],[9.087,37.093],[9.098,37.124],[9.079,37.149],[9.205,37.246],[9.241,37.242],[9.249,37.22],[9.29,37.231],[9.348,37.238],[9.424,37.281],[9.477,37.267],[9.482,37.266],[9.554,37.302],[9.595,37.305],[9.68,37.333],[9.756,37.347],[9.762,37.344],[9.778,37.336],[9.877,37.335],[9.881,37.275],[9.896,37.271],[9.916,37.267],[9.931,37.266],[10.0,37.26],[10.015,37.259],[10.082,37.259],[10.1,37.241],[10.167,37.229],[10.211,37.197],[10.282,37.185],[10.262,37.168],[10.241,37.15],[10.227,37.121],[10.218,37.109],[10.213,37.102],[10.128,37.104],[10.094,37.072],[10.046,36.99],[10.04,36.978],[10.018,36.933],[10.013,36.912],[9.997,36.923],[9.947,36.915],[9.93,36.951],[9.863,36.957],[9.847,36.963],[9.821,36.973],[9.77,36.892],[9.726,36.905],[9.608,36.866],[9.599,36.863],[9.557,36.833],[9.54,36.82]],[[9.896,37.271],[9.874,37.261],[9.872,37.26],[9.896,37.271]],[[9.966,37.181],[9.931,37.148],[9.929,37.146],[9.966,37.181]],[[9.831,36.989],[9.839,37.042],[9.838,37.038],[9.831,36.989]],[[9.793,37.183],[9.787,37.17],[9.802,37.2],[9.793,37.183]],[[9.606,37.165],[9.597,37.183],[9.609913043478251,37.15639130434785],[9.606,37.165]]]}},{"type":"Feature","properties":{"gouv_id":"TN43","gouv_fr":"Sidi Bouzid","gouv_ar":"\u0633\u064a\u062f\u064a \u0628\u0648\u0632\u064a\u062f"},"geometry":{"type":"Polygon","coordinates":[[[9.433,34.485],[9.347,34.511],[9.346,34.51],[9.334,34.564],[9.278,34.575],[9.252,34.582],[9.296,34.629],[9.291,34.682],[9.285,34.684],[9.209,34.708],[9.146,34.708],[9.135,34.708],[9.066,34.679],[8.99,34.724],[8.949,34.747],[8.917,34.804],[9.058,34.865],[9.066,34.883],[9.027,34.898],[9.049,34.948],[9.094,34.97],[9.171,35.008],[9.288,35.022],[9.292,35.027],[9.296,35.032],[9.332976079098447,35.08001371465022],[9.258,35.123],[9.237,35.191],[9.263,35.216],[9.163,35.298],[9.198,35.367],[9.194,35.37],[9.192,35.372],[9.343,35.487],[9.385,35.487],[9.466,35.485],[9.494,35.44],[9.503,35.399],[9.465,35.369],[9.474,35.355],[9.533,35.333],[9.575,35.265],[9.525,35.244],[9.599,35.275],[9.66,35.239],[9.698,35.241],[9.694,35.203],[9.707,35.117],[9.697,35.187],[9.881,35.166],[9.959,35.186],[9.994,35.144],[10.016861205623675,35.02870000641972],[10.063,35.013],[10.06,34.985],[9.972,34.878],[9.909,34.729],[9.901,34.661],[9.895,34.607],[9.951,34.589],[9.985,34.546],[10.067,34.524],[9.982,34.472],[9.947,34.458],[9.873,34.373],[9.765,34.359],[9.739,34.327],[9.756,34.291],[9.726,34.291],[9.708,34.291],[9.651,34.288],[9.566,34.283],[9.553,34.352],[9.571,34.356],[9.58,34.384],[9.515,34.403],[9.464,34.487],[9.433,34.485]],[[9.801,34.99],[9.718,34.96],[9.854,35.009],[9.801,34.99]],[[9.513,34.75],[9.556,34.775],[9.53,34.76],[9.513,34.75]],[[9.396,34.85],[9.42,34.764],[9.411,34.797],[9.396,34.85]],[[9.42,34.764],[9.399285714285575,34.756142857142805],[9.461,34.779],[9.42,34.764]]]}},{"type":"Feature","properties":{"gouv_id":"TN15","gouv_fr":"Nabeul","gouv_ar":"\u0646\u0627\u0628\u0644"},"geometry":{"type":"Polygon","coordinates":[[[10.708,36.436],[10.693,36.427],[10.632,36.394],[10.57,36.384],[10.557,36.372],[10.529,36.385],[10.482,36.364],[10.394,36.373],[10.391,36.353],[10.369,36.379],[10.349,36.48],[10.343,36.513],[10.381,36.561],[10.375,36.579],[10.364,36.583],[10.346,36.58],[10.34,36.587],[10.378,36.645],[10.417,36.691],[10.417,36.695],[10.421,36.715],[10.434,36.711],[10.483,36.728],[10.569,36.785],[10.579,36.852],[10.589,36.861],[10.606,36.877],[10.713,36.868],[10.772,36.914],[10.777,36.918],[10.904,37.016],[10.9,37.044],[10.972,37.058],[11.048,37.085],[11.079,37.045],[11.06,37.027],[11.064,36.988],[11.066,36.986],[11.107,36.944],[11.128,36.905],[11.132,36.865],[11.117,36.852],[11.086,36.823],[11.044,36.788],[10.958,36.714],[10.954,36.711],[10.919,36.648],[10.841,36.505],[10.819,36.466],[10.773,36.453],[10.735,36.443],[10.708,36.436]],[[10.78,36.844],[10.834,36.843],[10.786,36.844],[10.78,36.844]],[[10.563,36.459],[10.623,36.462],[10.62,36.462],[10.563,36.459]],[[10.529,36.629],[10.446,36.686],[10.531,36.627],[10.529,36.629]],[[10.473,36.501],[10.52,36.495],[10.476,36.501],[10.473,36.501]]]}},{"type":"Feature","properties":{"gouv_id":"TN42","gouv_fr":"Kasserine","gouv_ar":"\u0627\u0644\u0642\u0635\u0631\u064a\u0646"},"geometry":{"type":"Polygon","coordinates":[[[8.581,34.614],[8.502,34.641],[8.499,34.642],[8.347,34.724],[8.297,34.738],[8.281,34.815],[8.26,34.91],[8.321,34.965],[8.325,35.015],[8.445,35.194],[8.467,35.226],[8.323,35.276],[8.308,35.419],[8.375,35.474],[8.382,35.48],[8.354,35.609],[8.394,35.612],[8.403,35.64],[8.419,35.675],[8.521,35.673],[8.56,35.652],[8.597,35.652],[8.596,35.648],[8.617,35.702],[8.652,35.756],[8.683,35.777],[8.692,35.784],[8.718,35.774],[8.784,35.771],[8.813,35.761],[8.924,35.724],[8.991,35.696],[8.964,35.674],[8.981,35.638],[9.082,35.624],[9.1,35.577],[9.086,35.614],[9.164,35.624],[9.184,35.617],[9.193,35.561],[9.289,35.529],[9.335,35.488],[9.343,35.487],[9.192,35.372],[9.163,35.391],[9.194,35.37],[9.198,35.367],[9.163,35.298],[9.263,35.216],[9.237,35.191],[9.258,35.123],[9.333,35.08],[9.296,35.032],[9.292,35.027],[9.288,35.022],[9.174,35.009],[9.171,35.008],[9.094,34.97],[9.049,34.948],[9.027,34.898],[9.066,34.883],[9.058,34.865],[8.917,34.804],[8.901,34.797],[8.818,34.763],[8.715,34.722],[8.631,34.654],[8.581,34.614]],[[9.028,35.459],[9.01,35.459],[9.093,35.456],[9.028,35.459]],[[8.802,35.307],[8.881,35.286],[8.804,35.307],[8.802,35.307]],[[8.822,35.352],[8.828,35.358],[8.827,35.357],[8.822,35.352]],[[8.795225033288945,35.164155792276965],[8.795225033288947,35.164155792276965],[8.808,35.173],[8.795225033288945,35.164155792276965]],[[8.645,35.412],[8.641,35.433],[8.631,35.48],[8.645,35.412]]]}},{"type":"Feature","properties":{"gouv_id":"TN34","gouv_fr":"Sfax","gouv_ar":"\u0635\u0641\u0627\u0642\u0633"},"geometry":{"type":"MultiPolygon","coordinates":[[[[10.967,34.643],[11.011,34.681],[11.098,34.68],[11.164,34.715],[11.2,34.771],[11.239,34.763],[11.248,34.774],[11.236,34.831],[11.297,34.834],[11.325,34.765],[11.347,34.747],[11.167,34.675],[11.057,34.613],[10.967,34.643]]],[[[9.822,34.255],[9.818,34.223],[9.749,34.241],[9.708,34.291],[9.726,34.291],[9.756,34.291],[9.739,34.327],[9.765,34.359],[9.873,34.373],[9.947,34.458],[9.982,34.472],[10.067,34.524],[9.985,34.546],[9.951,34.589],[9.895,34.607],[9.909,34.729],[9.972,34.878],[10.06,34.985],[10.063,35.013],[10.065,35.028],[10.065,35.071],[10.197,35.17],[10.302,35.147],[10.35,35.154],[10.432,35.106],[10.533,35.17],[10.572,35.18],[10.573,35.234],[10.594,35.261],[10.594,35.264],[10.642,35.269],[10.724,35.231],[10.777,35.28],[10.801,35.281],[10.819,35.208],[10.851,35.161],[10.848,35.166],[10.897,35.183],[10.907,35.197],[10.936,35.176],[10.922,35.14],[11.03,35.09],[11.004,35.029],[10.984,35.004],[10.937,34.947],[10.893,34.838],[10.882,34.812],[10.829,34.788],[10.803,34.749],[10.757,34.681],[10.731,34.643],[10.658,34.628],[10.648,34.626],[10.616,34.593],[10.556,34.531],[10.443,34.493],[10.329,34.397],[10.296,34.387],[10.206,34.359],[10.151,34.342],[10.046,34.172],[9.981,34.197],[9.964,34.218],[9.921,34.208],[9.915,34.174],[9.873,34.205],[9.852,34.248],[9.822,34.255]],[[10.765,34.92],[10.78,34.824],[10.769,34.896],[10.765,34.92]],[[10.749,34.779],[10.773000000000133,34.77739999999999],[10.753,34.779],[10.749,34.779]],[[10.586,34.837],[10.585,34.837],[10.624,34.812],[10.586,34.837]],[[10.624,34.812],[10.648,34.732],[10.648,34.733],[10.624,34.812]],[[10.334,34.6],[10.291,34.584],[10.356,34.608],[10.334,34.6]],[[10.293,34.847],[10.286,34.819],[10.309,34.905],[10.293,34.847]]]]}},{"type":"Feature","properties":{"gouv_id":"TN23","gouv_fr":"Le kef","gouv_ar":"\u0627\u0644\u0643\u0627\u0641"},"geometry":{"type":"Polygon","coordinates":[[[8.597,35.652],[8.56,35.652],[8.521,35.673],[8.419,35.675],[8.403,35.64],[8.394,35.612],[8.354,35.609],[8.346,35.645],[8.271,35.712],[8.261,35.841],[8.276,35.951],[8.277,35.959],[8.32,36.081],[8.311,36.16],[8.358,36.271],[8.381,36.346],[8.441,36.346],[8.534,36.379],[8.608,36.404],[8.688,36.419],[8.759,36.394],[8.878,36.419],[8.937,36.448],[8.96,36.406],[8.967,36.332],[8.977,36.28],[8.844,36.218],[8.99,36.286],[9.03,36.232],[9.043,36.193],[9.024,36.169],[9.071,36.139],[9.151,36.084],[9.156,36.035],[9.159,35.998],[9.131,35.979],[9.114,35.967],[9.089,35.945],[9.052,35.871],[9.021,35.832],[9.043,35.778],[9.012,35.764],[9.043,35.685],[9.003,35.706],[8.991,35.696],[8.924,35.724],[8.813,35.761],[8.784,35.771],[8.718,35.774],[8.692,35.784],[8.683,35.777],[8.652,35.756],[8.631,35.723],[8.617,35.702],[8.597,35.652]],[[8.99,35.975],[8.978,35.968],[8.937,35.942],[8.99,35.975]],[[8.708,36.071],[8.699,36.067],[8.752,36.089],[8.739,36.084],[8.708,36.071]]]}},{"type":"Feature","properties":{"gouv_id":"TN12","gouv_fr":"Ariana","gouv_ar":"\u0623\u0631\u064a\u0627\u0646\u0629"},"geometry":{"type":"Polygon","coordinates":[[[10.08,36.854],[10.081,36.855],[10.076,36.876],[10.063,36.871],[10.027,36.849],[9.992,36.851],[9.982,36.837],[9.968,36.836],[9.966,36.839],[10.006,36.887],[10.018,36.933],[10.04,36.978],[10.046,36.99],[10.094,37.072],[10.128,37.104],[10.213,37.102],[10.177,37.054],[10.212,36.983],[10.216,36.975],[10.246,36.958],[10.256,36.952],[10.25,36.938],[10.285,36.9],[10.28,36.889],[10.276,36.877],[10.289,36.864],[10.273,36.863],[10.266,36.862],[10.246,36.858],[10.236,36.856],[10.239,36.87],[10.22,36.861],[10.215,36.85],[10.206,36.85],[10.187,36.85],[10.185,36.844],[10.168,36.841],[10.143,36.855],[10.143,36.854],[10.131,36.85],[10.12,36.847],[10.115,36.842],[10.114,36.842],[10.118,36.831],[10.118,36.829],[10.104466666666669,36.82706666666667],[10.098,36.84],[10.08,36.854]],[[10.205,36.862],[10.182,36.879],[10.17,36.887],[10.205,36.862]],[[10.144,36.874],[10.152,36.893],[10.146,36.879],[10.144,36.874]]]}},{"type":"Feature","properties":{"gouv_id":"TN63","gouv_fr":"Kebili","gouv_ar":"\u0642\u0628\u0644\u064a"},"geometry":{"type":"Polygon","coordinates":[[[9.878,32.73],[9.958,32.693],[9.963,32.628],[9.953,32.65],[9.89,32.687],[9.823,32.727],[9.739,32.802],[9.565,32.782],[9.539,32.721],[9.069,32.629],[9.024,32.621],[8.364,32.507],[8.323,32.819],[8.12,33.046],[8.122,33.109],[7.888,33.184],[7.857,33.18],[7.84,33.188],[7.732,33.36],[7.737,33.422],[7.874,33.465],[7.935,33.508],[8.155,33.66],[8.188,33.682],[8.316,33.765],[8.386,33.809],[8.482,33.87],[8.64,34.01],[8.661,34.072],[8.67,34.096],[8.863,34.115],[8.893,34.14],[8.896,34.14],[9.048,34.136],[9.167,34.192],[9.171,34.193],[9.178,34.197],[9.249,34.208],[9.277,34.161],[9.341,34.136],[9.352,34.13],[9.257,34.077],[9.282,33.869],[9.345,33.75],[9.419,33.709],[9.416,33.711],[9.453,33.704],[9.473,33.654],[9.538462165308495,33.63515483119907],[9.539,33.636],[9.623,33.603],[9.544,33.53],[9.518,33.519],[9.518,33.501],[9.633,33.429],[9.666,33.347],[9.713,33.307],[9.723,33.3],[9.823,33.221],[9.925,33.209],[9.911,33.088],[9.885,33.073],[9.91,33.027],[10.011,32.974],[9.948,32.969],[9.956,32.894],[9.977,32.854],[9.923,32.81],[9.921,32.808],[9.878,32.73]],[[8.832,33.517],[8.92,33.531],[8.847,33.52],[8.832,33.517]]]}},{"type":"Feature","properties":{"gouv_id":"TN24","gouv_fr":"Siliana","gouv_ar":"\u0633\u0644\u064a\u0627\u0646\u0629"},"geometry":{"type":"Polygon","coordinates":[[[9.184,35.617],[9.164,35.624],[9.086,35.614],[9.082,35.624],[8.981,35.638],[8.964,35.674],[8.991,35.696],[9.003,35.706],[9.043,35.685],[9.012,35.764],[9.043,35.778],[9.021,35.832],[9.052,35.871],[9.089,35.945],[9.114,35.967],[9.131,35.979],[9.159,35.998],[9.156,36.035],[9.151,36.084],[9.071,36.139],[9.024,36.169],[9.043,36.193],[9.032,36.226],[9.03,36.232],[8.99,36.286],[8.977,36.28],[8.967,36.332],[8.96,36.406],[8.937,36.448],[8.98,36.469],[9.01,36.469],[9.077,36.433],[9.122,36.391],[9.115,36.359],[9.135,36.356],[9.166,36.381],[9.259,36.368],[9.266213810024535,36.341112162635824],[9.327,36.373],[9.325,36.368],[9.358,36.438],[9.355,36.448],[9.463,36.454],[9.533,36.462],[9.555,36.43],[9.554,36.424],[9.626,36.417],[9.702,36.435],[9.745,36.464],[9.759,36.434],[9.763,36.393],[9.749,36.345],[9.709,36.311],[9.594,36.258],[9.616,36.247],[9.664,36.218],[9.587,36.177],[9.685,36.229],[9.735,36.198],[9.759,36.137],[9.745,36.104],[9.727,36.06],[9.606,35.979],[9.495,35.904],[9.482144494616184,35.874333449114275],[9.532,35.861],[9.543,35.832],[9.505,35.816],[9.498,35.773],[9.527,35.759],[9.537,35.736],[9.426,35.706],[9.39,35.691],[9.298,35.724],[9.255719459087784,35.699418290167316],[9.294,35.658],[9.39,35.579],[9.434,35.592],[9.452,35.486],[9.385,35.487],[9.343,35.487],[9.335,35.488],[9.289,35.529],[9.193,35.561],[9.184,35.617]],[[9.516892647722148,36.17025890843482],[9.51689418816784,36.1702590565546],[9.488,36.241],[9.483,36.252],[9.516892647722148,36.17025890843482]],[[9.207,35.926],[9.306,35.89],[9.244,35.913],[9.207,35.926]],[[9.251,36.132],[9.251,36.133],[9.229,36.166],[9.251,36.132]],[[9.192,36.248],[9.217,36.273],[9.208,36.265],[9.192,36.248]]]}},{"type":"Feature","properties":{"gouv_id":"TN22","gouv_fr":"Jandouba","gouv_ar":"\u062c\u0646\u062f\u0648\u0628\u0629"},"geometry":{"type":"Polygon","coordinates":[[[8.534,36.379],[8.441,36.346],[8.381,36.346],[8.397,36.396],[8.37,36.439],[8.18,36.438],[8.148,36.481],[8.298,36.535],[8.436,36.623],[8.44,36.625],[8.467,36.693],[8.47,36.701],[8.434,36.765],[8.603,36.78],[8.674,36.827],[8.638,36.869],[8.651,36.913],[8.665,36.959],[8.78,36.959],[8.872,37.013],[8.933,36.96],[8.926,36.926],[9.009,36.889],[8.987,36.857],[8.947,36.835],[8.919,36.796],[8.922,36.795],[8.918,36.777],[9.011,36.773],[9.029,36.741],[9.024,36.666],[9.025,36.665],[9.026,36.664],[9.047,36.634],[9.086,36.569],[9.055,36.523],[9.047,36.469],[9.01,36.469],[8.98,36.469],[8.937,36.448],[8.878,36.419],[8.759,36.394],[8.688,36.419],[8.685,36.418],[8.608,36.404],[8.534,36.379]],[[8.685,36.418],[8.673,36.459],[8.657,36.513],[8.685,36.418]],[[8.827746634026925,36.71140473276214],[8.733,36.742],[8.82774663402692,36.71140473276214],[8.827746634026925,36.71140473276214]],[[8.825,36.617],[8.814,36.606],[8.785,36.577],[8.825,36.617]],[[8.518,36.58],[8.518,36.585],[8.517,36.597],[8.518,36.58]]]}},{"type":"Feature","properties":{"gouv_id":"TN16","gouv_fr":"Zaghouan","gouv_ar":"\u0632\u063a\u0648\u0627\u0646"},"geometry":{"type":"Polygon","coordinates":[[[10.137,36.095],[10.091,36.073],[10.067,36.102],[10.056,36.101],[10.071,36.038],[10.03,36.001],[9.987,36.042],[9.916,36.041],[9.893,36.073],[9.861,36.075],[9.851,36.075],[9.839,36.063],[9.82,36.106],[9.745,36.104],[9.759,36.137],[9.735,36.198],[9.685,36.229],[9.664,36.218],[9.616,36.247],[9.594,36.258],[9.709,36.311],[9.749,36.345],[9.763,36.393],[9.759,36.434],[9.755,36.442],[9.745,36.464],[9.759,36.474],[9.84,36.561],[9.878,36.6],[9.897,36.614],[9.905,36.598],[9.985,36.631],[10.019,36.663],[10.038,36.624],[10.037,36.619],[10.106,36.583],[10.151,36.602],[10.151,36.569],[10.181929768917083,36.51512233801541],[10.219,36.52],[10.269,36.503],[10.244,36.454],[10.271,36.446],[10.311,36.465],[10.349,36.48],[10.369,36.379],[10.391,36.353],[10.386,36.326],[10.379,36.292],[10.377,36.283],[10.372,36.251],[10.32,36.236],[10.318,36.236],[10.27,36.238],[10.27,36.23],[10.269,36.174],[10.185,36.148],[10.192,36.131],[10.149,36.13],[10.139,36.134],[10.124,36.111],[10.137,36.095]],[[10.011,36.374],[9.999,36.4],[9.998,36.402],[10.011,36.374]]]}},{"type":"Feature","properties":{"gouv_id":"TN61","gouv_fr":"Gafsa","gouv_ar":"\u0642\u0641\u0635\u0629"},"geometry":{"type":"Polygon","coordinates":[[[8.339,34.091],[8.338,34.167],[8.213,34.184],[8.161,34.233],[8.112,34.28],[8.087,34.304],[8.061,34.329],[8.09,34.398],[8.09,34.433],[8.116,34.48],[8.141,34.523],[8.147,34.548],[8.237,34.62],[8.245,34.671],[8.301,34.721],[8.297,34.738],[8.347,34.724],[8.499,34.642],[8.502,34.641],[8.581,34.614],[8.631,34.654],[8.715,34.722],[8.901,34.797],[8.917,34.804],[8.949,34.747],[8.99,34.724],[9.066,34.679],[9.135,34.708],[9.146,34.708],[9.209,34.708],[9.291,34.682],[9.296,34.629],[9.252,34.582],[9.278,34.575],[9.334,34.564],[9.345968749999999,34.510140625000005],[9.347,34.511],[9.433,34.485],[9.464,34.487],[9.515,34.403],[9.58,34.384],[9.571,34.356],[9.553,34.352],[9.566,34.283],[9.54,34.282],[9.557,34.246],[9.484,34.225],[9.354,34.236],[9.268,34.211],[9.249,34.208],[9.178,34.197],[9.171,34.193],[9.167,34.192],[9.048,34.136],[8.896,34.14],[8.893,34.14],[8.863,34.115],[8.67,34.096],[8.661,34.072],[8.631,34.078],[8.619,34.078],[8.356,34.07],[8.339,34.091]],[[9.059,34.4],[8.984,34.49],[8.975,34.5],[9.059,34.4]],[[8.755,34.378],[8.846,34.443],[8.842,34.441],[8.755,34.378]],[[8.639,34.332],[8.82,34.328],[8.734,34.33],[8.639,34.332]],[[8.253,34.469],[8.358,34.391],[8.345,34.401],[8.253,34.469]]]}},{"type":"Feature","properties":{"gouv_id":"TN51","gouv_fr":"Gabes","gouv_ar":"\u0642\u0627\u0628\u0633"},"geometry":{"type":"Polygon","coordinates":[[[9.713,33.307],[9.666,33.347],[9.633,33.429],[9.518,33.501],[9.518,33.519],[9.544,33.53],[9.626,33.605],[9.623,33.603],[9.539,33.636],[9.539,33.635],[9.473,33.654],[9.453,33.704],[9.416,33.711],[9.345,33.75],[9.282,33.869],[9.257,34.077],[9.352,34.13],[9.341,34.136],[9.277,34.161],[9.249,34.208],[9.268,34.211],[9.354,34.236],[9.484,34.225],[9.557,34.246],[9.54,34.282],[9.651,34.288],[9.708,34.291],[9.749,34.241],[9.818,34.223],[9.822,34.255],[9.852,34.248],[9.873,34.205],[9.915,34.174],[9.907,34.126],[9.921,34.208],[9.964,34.218],[9.981,34.197],[10.046,34.172],[10.037,34.157],[10.057,34.011],[10.064,33.963],[10.092,33.929],[10.128,33.886],[10.187,33.815],[10.188,33.814],[10.36,33.678],[10.437,33.656],[10.382,33.584],[10.325,33.506],[10.278,33.442],[10.231,33.435],[10.145,33.422],[10.106,33.372],[10.024,33.309],[9.91,33.3],[9.802,33.292],[9.723,33.3],[9.713,33.307]]]}},{"type":"Feature","properties":{"gouv_id":"TN62","gouv_fr":"Tozeur","gouv_ar":"\u062a\u0648\u0632\u0631"},"geometry":{"type":"Polygon","coordinates":[[[7.935,33.508],[7.874,33.465],[7.737,33.422],[7.727,33.428],[7.635,33.574],[7.528,33.827],[7.539,33.956],[7.558,34.059],[7.558,34.063],[7.617,34.121],[7.655,34.193],[7.805,34.227],[7.876,34.407],[7.975,34.44],[8.138,34.541],[8.147,34.548],[8.141,34.523],[8.116,34.48],[8.09,34.433],[8.09,34.398],[8.061,34.329],[8.087,34.304],[8.112,34.28],[8.213,34.184],[8.338,34.167],[8.339,34.091],[8.356,34.07],[8.631,34.078],[8.661,34.072],[8.64,34.01],[8.482,33.87],[8.386,33.809],[8.316,33.765],[8.188,33.682],[8.155,33.66],[7.935,33.508]]]}},{"type":"Feature","properties":{"gouv_id":"TN53","gouv_fr":"Tataouine","gouv_ar":"\u062a\u0637\u0627\u0648\u064a\u0646"},"geometry":{"type":"Polygon","coordinates":[[[10.697,33.102],[10.755,33.096],[10.959,33.075],[10.976,33.097],[10.998,33.103],[11.027,33.096],[11.021,33.017],[11.079,32.938],[11.121,32.722],[11.086,32.673],[11.21,32.391],[11.337,32.403],[11.34,32.375],[11.162,32.313],[11.155,32.313],[11.156,32.248],[11.003,32.18],[10.742,31.969],[10.662,31.974],[10.633,31.963],[10.622,31.86],[10.49,31.729],[10.348,31.734],[10.157,31.507],[10.137,31.477],[10.11,31.435],[10.251,31.069],[10.286,30.9],[10.264,30.779],[10.192,30.701],[9.878,30.342],[9.759,30.328],[9.552,30.254],[9.079,32.07],[8.361,32.499],[8.364,32.507],[9.024,32.621],[9.069,32.629],[9.539,32.721],[9.565,32.782],[9.739,32.802],[9.823,32.727],[9.89,32.687],[9.953,32.65],[9.982,32.586],[9.963,32.628],[9.958,32.693],[9.878,32.73],[9.921,32.808],[9.977,32.854],[9.956,32.894],[9.948,32.969],[10.114,32.982],[10.011,32.974],[9.91,33.027],[9.899,33.048],[9.977,33.069],[10.092,33.082],[10.113,33.1],[10.177,33.096],[10.271,33.152],[10.338,33.173],[10.348,33.177],[10.435,33.244],[10.441,33.251],[10.485,33.218],[10.594,33.201],[10.54,33.164],[10.532,33.157],[10.623481920569048,33.10827593360996],[10.697,33.102]],[[10.377,32.952],[10.364,32.958],[10.402,32.94],[10.377,32.952]]]}},{"type":"Feature","properties":{"gouv_id":"TN21","gouv_fr":"Beja","gouv_ar":"\u0628\u0627\u062c\u0629"},"geometry":{"type":"Polygon","coordinates":[[[9.166,36.381],[9.135,36.356],[9.115,36.359],[9.122,36.391],[9.077,36.433],[9.075,36.434],[9.01,36.469],[9.047,36.469],[9.055,36.523],[9.086,36.569],[9.085,36.572],[9.047,36.634],[9.035,36.651],[9.026,36.664],[9.025,36.665],[9.024,36.666],[9.029,36.741],[9.011,36.773],[8.918,36.777],[8.922,36.795],[8.919,36.796],[8.947,36.835],[8.987,36.857],[9.009,36.889],[9.001,36.892],[8.926,36.926],[8.933,36.96],[8.872,37.013],[8.945,37.056],[9.075,37.145],[9.079,37.149],[9.098,37.124],[9.087,37.093],[9.109,37.049],[9.189,37.052],[9.221,36.998],[9.216,36.963],[9.256,36.939],[9.247,36.912],[9.245,36.904],[9.325,36.868],[9.347,36.875],[9.389,36.846],[9.349,36.771],[9.376,36.748],[9.406,36.722],[9.43,36.738],[9.473,36.767],[9.54,36.82],[9.557,36.833],[9.613,36.77],[9.687,36.752],[9.731,36.73],[9.782,36.717],[9.799,36.669],[9.799,36.639],[9.812,36.636],[9.821,36.609],[9.854,36.607],[9.865,36.587],[9.84,36.561],[9.759,36.474],[9.745,36.464],[9.702,36.435],[9.626,36.417],[9.554,36.424],[9.555,36.43],[9.533,36.462],[9.463,36.454],[9.355,36.448],[9.328,36.526],[9.358,36.438],[9.327,36.373],[9.266,36.341],[9.259,36.368],[9.166,36.381]],[[9.623,36.562],[9.652,36.589],[9.625,36.565],[9.623,36.562]],[[9.153,36.844],[9.131,36.829],[9.178,36.861],[9.153,36.844]],[[9.069,36.718],[9.086,36.682],[9.084,36.688],[9.069,36.718]]]}},{"type":"Feature","properties":{"gouv_id":"TN32","gouv_fr":"Monastir","gouv_ar":"\u0635\u064a\u0627\u062f\u0629 \u0644\u0645\u0637\u0629 \u0628\u0648\u062d\u062c\u0631"},"geometry":{"type":"Polygon","coordinates":[[[10.63,35.486],[10.601,35.504],[10.515,35.482],[10.493,35.509],[10.494,35.552],[10.52,35.563],[10.543,35.577],[10.533,35.599],[10.573,35.647],[10.587,35.648],[10.606,35.649],[10.622,35.643],[10.649,35.674],[10.653,35.68],[10.64,35.692],[10.639,35.728],[10.643,35.746],[10.67461259079903,35.74698789346247],[10.676,35.753],[10.672,35.771],[10.679,35.78],[10.69,35.795],[10.768,35.773],[10.808,35.79],[10.852,35.779],[10.828,35.715],[10.852,35.703],[10.873,35.693],[10.92,35.67],[10.928,35.667],[10.98,35.648],[10.995,35.646],[11.05,35.636],[11.054,35.618],[11.031,35.558],[11.04,35.544],[11.006,35.553],[11.001,35.551],[10.98,35.542],[10.942,35.546],[10.909,35.51],[10.849,35.477],[10.829,35.439],[10.826,35.433],[10.781,35.434],[10.731,35.484],[10.679,35.475],[10.67,35.493],[10.641,35.488],[10.63,35.486]]]}},{"type":"Feature","properties":{"gouv_id":"TN33","gouv_fr":"Mahdia","gouv_ar":"\u0627\u0644\u0645\u0647\u062f\u064a\u0629"},"geometry":{"type":"Polygon","coordinates":[[[10.533,35.17],[10.432,35.106],[10.35,35.154],[10.32,35.15],[10.302,35.147],[10.232,35.162],[10.22,35.212],[10.216,35.218],[10.181,35.266],[10.209,35.335],[10.185,35.357],[10.17,35.368],[10.192,35.442],[10.195,35.453],[10.261,35.498],[10.216,35.562],[10.311,35.591],[10.36,35.518],[10.41,35.521],[10.452,35.501],[10.465,35.44],[10.433,35.457],[10.494,35.424],[10.563,35.388],[10.564,35.423],[10.564,35.448],[10.618,35.483],[10.67,35.493],[10.679,35.475],[10.731,35.484],[10.781,35.434],[10.826,35.433],[10.829,35.439],[10.849,35.477],[10.909,35.51],[10.942,35.546],[10.98,35.542],[11.006,35.553],[11.04,35.544],[11.069,35.503],[11.055,35.464],[11.045,35.441],[11.017,35.372],[11.072,35.296],[11.089,35.287],[11.167,35.248],[11.175,35.233],[11.092,35.21],[11.065,35.171],[11.06,35.164],[11.03,35.09],[10.922,35.14],[10.936,35.176],[10.907,35.197],[10.897,35.183],[10.848,35.166],[10.819,35.208],[10.808,35.254],[10.801,35.281],[10.777,35.28],[10.724,35.231],[10.642,35.269],[10.594,35.264],[10.594,35.261],[10.573,35.234],[10.572,35.18],[10.533,35.17]],[[10.864,35.429],[10.897,35.45],[10.865,35.43],[10.864,35.429]],[[10.646,35.357],[10.709,35.361],[10.67,35.359],[10.646,35.357]],[[10.384,35.354],[10.388846153846155,35.367461538461534],[10.384,35.355],[10.384,35.354]]]}},{"type":"Feature","properties":{"gouv_id":"TN41","gouv_fr":"Kairouan","gouv_ar":"\u0627\u0644\u0642\u064a\u0631\u0648\u0627\u0646"},"geometry":{"type":"Polygon","coordinates":[[[9.698,35.241],[9.66,35.239],[9.599,35.275],[9.575,35.265],[9.533,35.333],[9.474,35.355],[9.465,35.369],[9.503,35.399],[9.494,35.44],[9.466,35.485],[9.452,35.486],[9.434,35.592],[9.39,35.579],[9.294,35.658],[9.255,35.699],[9.298,35.724],[9.39,35.691],[9.426,35.706],[9.536796116504854,35.73646893203883],[9.527,35.759],[9.498,35.773],[9.505,35.816],[9.543,35.832],[9.532,35.861],[9.482,35.874],[9.495,35.904],[9.727,36.06],[9.745,36.104],[9.82,36.106],[9.839,36.063],[9.822,36.043],[9.851,36.075],[9.893,36.073],[9.916,36.041],[9.987,36.042],[10.03,36.001],[10.071,36.038],[10.056,36.101],[10.067,36.102],[10.091,36.073],[10.137,36.095],[10.124,36.111],[10.139,36.134],[10.149,36.13],[10.192,36.131],[10.197,36.119],[10.223,36.056],[10.279,36.022],[10.261,36.022],[10.242,35.922],[10.175,35.869],[10.156,35.807],[10.18,35.785],[10.245,35.698],[10.251,35.688],[10.287,35.626],[10.311,35.591],[10.216,35.562],[10.261,35.498],[10.226,35.474],[10.195,35.453],[10.192,35.442],[10.17,35.368],[10.185,35.357],[10.209,35.335],[10.181,35.266],[10.216,35.218],[10.22,35.212],[10.232,35.162],[10.197,35.17],[10.065,35.071],[10.065,35.028],[10.063,35.013],[10.017,35.028],[9.994,35.144],[9.959,35.186],[9.881,35.166],[9.697,35.187],[9.694,35.203],[9.699,35.25],[9.698,35.241]],[[9.967,35.763],[10.025,35.806],[9.984,35.776],[9.967,35.763]],[[9.898,35.463],[9.925,35.51],[9.92,35.502],[9.898,35.463]],[[9.898,35.463],[9.902,35.42],[9.899,35.454],[9.898,35.463]],[[9.795491803278715,35.48383606557378],[9.735,35.463],[9.71,35.454],[9.795491803278715,35.48383606557378]]]}},{"type":"Feature","properties":{"gouv_id":"TN52","gouv_fr":"Mednine","gouv_ar":"\u0645\u062f\u0646\u064a\u0646"},"geometry":{"type":"MultiPolygon","coordinates":[[[[10.594,33.201],[10.485,33.218],[10.441,33.251],[10.435,33.244],[10.348,33.177],[10.338,33.173],[10.271,33.152],[10.177,33.096],[10.113,33.1],[10.092,33.082],[9.977,33.069],[9.899,33.048],[9.885,33.073],[9.911,33.088],[9.925,33.209],[9.823,33.221],[9.723,33.3],[9.802,33.292],[10.024,33.309],[10.106,33.372],[10.145,33.422],[10.231,33.435],[10.278,33.442],[10.325,33.506],[10.382,33.584],[10.437,33.656],[10.492,33.64],[10.686,33.706],[10.75,33.676],[10.747,33.659],[10.745,33.644],[10.735,33.58],[10.704,33.534],[10.708,33.484],[10.767,33.473],[10.793,33.468],[10.931,33.534],[10.949,33.58],[10.924,33.609],[10.963,33.637],[11.04,33.629],[11.126,33.488],[11.09,33.413],[11.182,33.326],[11.185,33.325],[11.561,33.175],[11.577,33.132],[11.502,33.044],[11.477,32.744],[11.464,32.598],[11.564,32.538],[11.591,32.438],[11.377,32.345],[11.156,32.248],[11.155,32.313],[11.162,32.313],[11.34,32.375],[11.337,32.403],[11.21,32.391],[11.086,32.673],[11.121,32.722],[11.079,32.938],[11.021,33.017],[11.027,33.096],[10.998,33.103],[10.976,33.097],[10.959,33.075],[10.755,33.096],[10.697,33.102],[10.624,33.108],[10.532,33.157],[10.54,33.164],[10.622,33.22],[10.594,33.201]]],[[[10.988,33.716],[10.987,33.673],[10.962,33.673],[10.967,33.72],[10.95,33.72],[10.893,33.674],[10.901,33.635],[10.875,33.631],[10.863,33.687],[10.86,33.703],[10.83,33.74],[10.809,33.74],[10.795,33.701],[10.732,33.734],[10.742,33.809],[10.745,33.854],[10.748,33.898],[10.821,33.904],[10.902,33.889],[10.966,33.881],[11.006,33.861],[11.068,33.829],[11.006,33.751],[10.988,33.716]]]]}}]}